{
  "type": "FeatureCollection",
  "features": [
    {
      "type": "Feature",
      "properties": {
        "norad_id": 66629,
        "name": "STARLINK-35956",
        "group": "last-30-days",
        "lat": -4.486280887585821,
        "lon": -166.7980955940775,
        "alt_km": 394.0277161209624,
        "timestamp": "2025-12-10T18:56:58.833944+00:00",
        "meta_object_name": "STARLINK-35956",
        "meta_object_id": "2025-271N",
        "meta_epoch": "2025-12-10T12:00:02.998944",
        "meta_mean_motion": 15.59684437,
        "meta_eccentricity": 0.0001242,
        "meta_inclination": 53.1599,
        "meta_ra_of_asc_node": 197.9794,
        "meta_arg_of_pericenter": 109.0956,
        "meta_mean_anomaly": 59.4348,
        "meta_ephemeris_type": 0,
        "meta_classification_type": "U",
        "meta_norad_cat_id": 66629,
        "meta_element_set_no": 999,
        "meta_rev_at_epoch": 388,
        "meta_bstar": -0.027393,
        "meta_mean_motion_dot": -0.01961325,
        "meta_mean_motion_ddot": 0,
        "tle_line1": "1 66629U 25271N   25344.50003471 -.01961325  00000+0 -27393-1 0  9997",
        "tle_line2": "2 66629  53.1599 197.9794 0001242 109.0956  59.4348 15.59684437  3882"
      },
      "geometry": {
        "type": "Point",
        "coordinates": [
          -166.7980955940775,
          -4.486280887585821
        ]
      }
    },
    {
      "type": "Feature",
      "properties": {
        "norad_id": 66630,
        "name": "STARLINK-35949",
        "group": "last-30-days",
        "lat": -2.9514659844906586,
        "lon": -165.64637090075783,
        "alt_km": 393.69509557555466,
        "timestamp": "2025-12-10T18:56:58.833955+00:00",
        "meta_object_name": "STARLINK-35949",
        "meta_object_id": "2025-271P",
        "meta_epoch": "2025-12-10T12:00:02.998944",
        "meta_mean_motion": 15.59692202,
        "meta_eccentricity": 0.0001095,
        "meta_inclination": 53.16,
        "meta_ra_of_asc_node": 197.9741,
        "meta_arg_of_pericenter": 101.6227,
        "meta_mean_anomaly": 68.8239,
        "meta_ephemeris_type": 0,
        "meta_classification_type": "U",
        "meta_norad_cat_id": 66630,
        "meta_element_set_no": 999,
        "meta_rev_at_epoch": 388,
        "meta_bstar": -0.027588,
        "meta_mean_motion_dot": -0.01973985,
        "meta_mean_motion_ddot": 0,
        "tle_line1": "1 66630U 25271P   25344.50003471 -.01973985  00000+0 -27588-1 0  9990",
        "tle_line2": "2 66630  53.1600 197.9741 0001095 101.6227  68.8239 15.59692202  3886"
      },
      "geometry": {
        "type": "Point",
        "coordinates": [
          -165.64637090075783,
          -2.9514659844906586
        ]
      }
    },
    {
      "type": "Feature",
      "properties": {
        "norad_id": 66631,
        "name": "STARLINK-35965",
        "group": "last-30-days",
        "lat": -1.4208439642855377,
        "lon": -164.49968986290463,
        "alt_km": 393.5407847192355,
        "timestamp": "2025-12-10T18:56:58.833964+00:00",
        "meta_object_name": "STARLINK-35965",
        "meta_object_id": "2025-271Q",
        "meta_epoch": "2025-12-10T12:00:02.998944",
        "meta_mean_motion": 15.59679055,
        "meta_eccentricity": 0.0001032,
        "meta_inclination": 53.1599,
        "meta_ra_of_asc_node": 197.971,
        "meta_arg_of_pericenter": 109.6097,
        "meta_mean_anomaly": 62.7555,
        "meta_ephemeris_type": 0,
        "meta_classification_type": "U",
        "meta_norad_cat_id": 66631,
        "meta_element_set_no": 999,
        "meta_rev_at_epoch": 388,
        "meta_bstar": -0.027268,
        "meta_mean_motion_dot": -0.01952973,
        "meta_mean_motion_ddot": 0,
        "tle_line1": "1 66631U 25271Q   25344.50003471 -.01952973  00000+0 -27268-1 0  9990",
        "tle_line2": "2 66631  53.1599 197.9710 0001032 109.6097  62.7555 15.59679055  3889"
      },
      "geometry": {
        "type": "Point",
        "coordinates": [
          -164.49968986290463,
          -1.4208439642855377
        ]
      }
    },
    {
      "type": "Feature",
      "properties": {
        "norad_id": 66632,
        "name": "STARLINK-35973",
        "group": "last-30-days",
        "lat": 0.11456258007556507,
        "lon": -163.35238614529084,
        "alt_km": 393.32858277109153,
        "timestamp": "2025-12-10T18:56:58.833974+00:00",
        "meta_object_name": "STARLINK-35973",
        "meta_object_id": "2025-271R",
        "meta_epoch": "2025-12-10T12:00:02.998944",
        "meta_mean_motion": 15.59693271,
        "meta_eccentricity": 0.0001229,
        "meta_inclination": 53.1599,
        "meta_ra_of_asc_node": 197.9669,
        "meta_arg_of_pericenter": 106.0135,
        "meta_mean_anomaly": 68.2661,
        "meta_ephemeris_type": 0,
        "meta_classification_type": "U",
        "meta_norad_cat_id": 66632,
        "meta_element_set_no": 999,
        "meta_rev_at_epoch": 382,
        "meta_bstar": -0.027589,
        "meta_mean_motion_dot": -0.01974194,
        "meta_mean_motion_ddot": 0,
        "tle_line1": "1 66632U 25271R   25344.50003471 -.01974194  00000+0 -27589-1 0  9996",
        "tle_line2": "2 66632  53.1599 197.9669 0001229 106.0135  68.2661 15.59693271  3824"
      },
      "geometry": {
        "type": "Point",
        "coordinates": [
          -163.35238614529084,
          0.11456258007556507
        ]
      }
    },
    {
      "type": "Feature",
      "properties": {
        "norad_id": 66633,
        "name": "STARLINK-35948",
        "group": "last-30-days",
        "lat": 1.64841621416215,
        "lon": -162.20697381584264,
        "alt_km": 393.0343645320818,
        "timestamp": "2025-12-10T18:56:58.833986+00:00",
        "meta_object_name": "STARLINK-35948",
        "meta_object_id": "2025-271S",
        "meta_epoch": "2025-12-10T12:00:02.998944",
        "meta_mean_motion": 15.59690991,
        "meta_eccentricity": 0.0001211,
        "meta_inclination": 53.1599,
        "meta_ra_of_asc_node": 197.9619,
        "meta_arg_of_pericenter": 100.7202,
        "meta_mean_anomaly": 75.4777,
        "meta_ephemeris_type": 0,
        "meta_classification_type": "U",
        "meta_norad_cat_id": 66633,
        "meta_element_set_no": 999,
        "meta_rev_at_epoch": 388,
        "meta_bstar": -0.02755,
        "meta_mean_motion_dot": -0.01971624,
        "meta_mean_motion_ddot": 0,
        "tle_line1": "1 66633U 25271S   25344.50003471 -.01971624  00000+0 -27550-1 0  9990",
        "tle_line2": "2 66633  53.1599 197.9619 0001211 100.7202  75.4777 15.59690991  3887"
      },
      "geometry": {
        "type": "Point",
        "coordinates": [
          -162.20697381584264,
          1.64841621416215
        ]
      }
    },
    {
      "type": "Feature",
      "properties": {
        "norad_id": 66634,
        "name": "STARLINK-35967",
        "group": "last-30-days",
        "lat": 3.180526148470041,
        "lon": -161.05990453135522,
        "alt_km": 392.89635520548563,
        "timestamp": "2025-12-10T18:56:58.834010+00:00",
        "meta_object_name": "STARLINK-35967",
        "meta_object_id": "2025-271T",
        "meta_epoch": "2025-12-10T12:00:02.998944",
        "meta_mean_motion": 15.59691402,
        "meta_eccentricity": 0.0001281,
        "meta_inclination": 53.1599,
        "meta_ra_of_asc_node": 197.9576,
        "meta_arg_of_pericenter": 108.0547,
        "meta_mean_anomaly": 70.0581,
        "meta_ephemeris_type": 0,
        "meta_classification_type": "U",
        "meta_norad_cat_id": 66634,
        "meta_element_set_no": 999,
        "meta_rev_at_epoch": 381,
        "meta_bstar": -0.027519,
        "meta_mean_motion_dot": -0.01969733,
        "meta_mean_motion_ddot": 0,
        "tle_line1": "1 66634U 25271T   25344.50003471 -.01969733  00000+0 -27519-1 0  9994",
        "tle_line2": "2 66634  53.1599 197.9576 0001281 108.0547  70.0581 15.59691402  3815"
      },
      "geometry": {
        "type": "Point",
        "coordinates": [
          -161.05990453135522,
          3.180526148470041
        ]
      }
    },
    {
      "type": "Feature",
      "properties": {
        "norad_id": 66635,
        "name": "STARLINK-35955",
        "group": "last-30-days",
        "lat": 4.711973870959205,
        "lon": -159.90820953514338,
        "alt_km": 392.63955857991186,
        "timestamp": "2025-12-10T18:56:58.834020+00:00",
        "meta_object_name": "STARLINK-35955",
        "meta_object_id": "2025-271U",
        "meta_epoch": "2025-12-10T12:00:02.998944",
        "meta_mean_motion": 15.59685372,
        "meta_eccentricity": 0.000117,
        "meta_inclination": 53.1597,
        "meta_ra_of_asc_node": 197.954,
        "meta_arg_of_pericenter": 107.8576,
        "meta_mean_anomaly": 72.1736,
        "meta_ephemeris_type": 0,
        "meta_classification_type": "U",
        "meta_norad_cat_id": 66635,
        "meta_element_set_no": 999,
        "meta_rev_at_epoch": 388,
        "meta_bstar": -0.027408,
        "meta_mean_motion_dot": -0.01962296,
        "meta_mean_motion_ddot": 0,
        "tle_line1": "1 66635U 25271U   25344.50003471 -.01962296  00000+0 -27408-1 0  9999",
        "tle_line2": "2 66635  53.1597 197.9540 0001170 107.8576  72.1736 15.59685372  3882"
      },
      "geometry": {
        "type": "Point",
        "coordinates": [
          -159.90820953514338,
          4.711973870959205
        ]
      }
    }
  ]
}